NORAD_CAT_ID,OBJECT_NAME,OBJECT_TYPE,EPOCH,MEAN_MOTION,ECCENTRICITY,INCLINATION,RA_OF_ASC_NODE,ARG_OF_PERICENTER,MEAN_ANOMALY,BSTAR,MEAN_MOTION_DOT,MEAN_MOTION_DDOT,TLE_LINE0,TLE_LINE1,TLE_LINE2,SEMIMAJOR_AXIS,PERIOD,APOGEE,PERIGEE,DECAYED
55667.0,STARLINK-5456,PAYLOAD,2023-02-22 16:00:00,15.94861231,0.0036876,70.0,136.7791,163.1891,240.4044,-0.0026347,-0.01087331,0.0003632,0 STARLINK-5456,1 55667U 23021AR  23053.66667824 -.01087331  36320-3 -26347-2 0  9991,2 55667  70.0000 136.7791 0036876 163.1891 240.4044 15.94861231  1303,6666.838,90.29,313.288,264.118,0.0
55667.0,STARLINK-5456,PAYLOAD,2023-02-22 22:00:00,15.94363269,0.0033757,69.9994,136.0498,163.3371,234.9276,-0.0028803,-0.01143413,0.00039648,0 STARLINK-5456,1 55667U 23021AR  23053.91667824 -.01143413  39648-3 -28803-2 0  9998,2 55667  69.9994 136.0498 0033757 163.3371 234.9276 15.94363269  1302,6668.226,90.318,312.601,267.581,0.0
55667.0,STARLINK-5456,PAYLOAD,2023-02-23 08:00:01,15.93459793,0.0029149,69.9998,134.8364,165.3737,102.9831,-0.0029804,-0.01111062,0.00037257,0 STARLINK-5456,1 55667U 23021AR  23054.33334491 -.01111062  37257-3 -29804-2 0  9997,2 55667  69.9998 134.8364 0029149 165.3737 102.9831 15.93459793  1401,6670.746,90.369,312.056,273.167,0.0
55667.0,STARLINK-5456,PAYLOAD,2023-02-23 14:00:01,15.92929245,0.0026945,69.9997,134.1085,166.2377,95.5332,-0.0030802,-0.01109604,0.00036967,0 STARLINK-5456,1 55667U 23021AR  23054.58334491 -.01109604  36967-3 -30802-2 0  9990,2 55667  69.9997 134.1085 0026945 166.2377  95.5332 15.92929245  1309,6672.228,90.399,312.071,276.114,0.0
55667.0,STARLINK-5456,PAYLOAD,2023-02-23 16:00:00,15.92747707,0.0026074,70.0,133.8665,166.989,212.4827,-0.0030926,-0.01101039,0.00036375,0 STARLINK-5456,1 55667U 23021AR  23054.66667824 -.01101039  36375-3 -30926-2 0  9992,2 55667  70.0000 133.8665 0026074 166.9890 212.4827 15.92747707  1453,6672.735,90.41,311.998,277.201,0.0
55667.0,STARLINK-5456,PAYLOAD,2023-02-23 22:00:00,15.92255999,0.0023079,69.9994,133.1394,168.3067,203.9265,-0.0033916,-0.01167808,0.00040352,0 STARLINK-5456,1 55667U 23021AR  23054.91667824 -.01167808  40352-3 -33916-2 0  9998,2 55667  69.9994 133.1394 0023079 168.3067 203.9265 15.92255999  1300,6674.108,90.438,311.376,280.57,0.0
55667.0,STARLINK-5456,PAYLOAD,2023-02-24 02:00:01,15.91854548,0.0021956,69.9999,132.6561,169.5291,77.6457,-0.0032177,-0.01083073,0.00034972,0 STARLINK-5456,1 55667U 23021AR  23055.08334491 -.01083073  34972-3 -32177-2 0  9998,2 55667  69.9999 132.6561 0021956 169.5291  77.6457 15.91854548  1526,6675.23,90.461,311.751,282.439,0.0
55667.0,STARLINK-5456,PAYLOAD,2023-02-24 08:00:01,15.91330496,0.0019212,70.0,131.9299,172.7831,66.3728,-0.0033546,-0.01093027,0.00035383,0 STARLINK-5456,1 55667U 23021AR  23055.33334491 -.01093027  35383-3 -33546-2 0  9994,2 55667  70.0000 131.9299 0019212 172.7831  66.3728 15.91330496  1561,6676.696,90.49,311.388,285.733,0.0
55667.0,STARLINK-5456,PAYLOAD,2023-02-24 14:00:01,15.90807491,0.0016863,69.9998,131.2046,175.9633,54.6963,-0.0034944,-0.01103961,0.00035854,0 STARLINK-5456,1 55667U 23021AR  23055.58334491 -.01103961  35854-3 -34944-2 0  9996,2 55667  69.9998 131.2046 0016863 175.9633  54.6963 15.90807491  1307,6678.159,90.52,311.285,288.763,0.0
55667.0,STARLINK-5456,PAYLOAD,2023-02-24 18:00:00,15.90436325,0.0015475,69.9997,130.722,178.9367,285.8036,-0.0034631,-0.01071595,0.00033812,0 STARLINK-5456,1 55667U 23021AR  23055.75001157 -.01071595  33812-3 -34631-2 0  9997,2 55667  69.9997 130.7220 0015475 178.9367 285.8036 15.90436325  1638,6679.198,90.541,311.399,290.727,0.0
55667.0,STARLINK-5456,PAYLOAD,2023-02-24 22:00:00,15.90127808,0.0013687,69.9996,130.2385,183.3005,155.2836,-0.0038093,-0.01156908,0.00038836,0 STARLINK-5456,1 55667U 23021AR  23055.91667824 -.01156908  38836-3 -38093-2 0  9993,2 55667  69.9996 130.2385 0013687 183.3005 155.2836 15.90127808  1301,6680.062,90.559,311.07,292.784,0.0
55667.0,STARLINK-5456,PAYLOAD,2023-02-25 02:00:01,15.89729582,0.001262,70.0002,129.7561,187.1579,25.0934,-0.0036028,-0.0107171,0.00033587,0 STARLINK-5456,1 55667U 23021AR  23056.08334491 -.01071710  33587-3 -36028-2 0  9994,2 55667  70.0002 129.7561 0012620 187.1579  25.0934 15.89729582  1684,6681.177,90.581,311.474,294.611,0.0
55667.0,STARLINK-5456,PAYLOAD,2023-02-25 08:00:01,15.8920088,0.0010584,70.0001,129.0327,197.0547,5.2733,-0.0037177,-0.01074605,0.00033582,0 STARLINK-5456,1 55667U 23021AR  23056.33334491 -.01074605  33582-3 -37177-2 0  9999,2 55667  70.0001 129.0327 0010584 197.0547   5.2733 15.89200880  1725,6682.659,90.612,311.597,297.451,0.0
55667.0,STARLINK-5456,PAYLOAD,2023-02-25 14:00:01,15.8868156,0.0009406,69.9996,128.3099,207.5609,344.3616,-0.003876,-0.01090428,0.0003433,0 STARLINK-5456,1 55667U 23021AR  23056.58334491 -.01090428  34330-3 -38760-2 0  9998,2 55667  69.9996 128.3099 0009406 207.5609 344.3616 15.88681560  1768,6684.115,90.641,312.267,299.693,0.0
55667.0,STARLINK-5456,PAYLOAD,2023-02-25 22:00:00,15.88010811,0.0008325,69.9994,127.3461,228.3631,68.9383,-0.0042721,-0.01040874,0.0,0 STARLINK-5456,1 55667U 23021AR  23056.91667824 -.01040874  00000-0 -42721-2 0  9990,2 55667  69.9994 127.3461 0008325 228.3631  68.9383 15.88010811  1814,6685.997,90.679,313.429,302.296,0.0
55667.0,STARLINK-5456,PAYLOAD,2023-02-26 06:00:00,15.87298215,0.0008766,69.9993,126.3846,249.3572,152.4906,-0.0043749,-0.0103046,0.0,0 STARLINK-5456,1 55667U 23021AR  23057.25001157 -.01030460  00000-0 -43749-2 0  9990,2 55667  69.9993 126.3846 0008766 249.3572 152.4906 15.87298215  1876,6687.998,90.72,315.726,304.001,0.0
55667.0,STARLINK-5456,PAYLOAD,2023-02-26 14:00:01,15.86555319,0.0009226,69.9997,125.4237,263.6671,241.8933,-0.0042746,-0.00976935,0.0,0 STARLINK-5456,1 55667U 23021AR  23057.58334491 -.00976935  00000-0 -42746-2 0  9997,2 55667  69.9997 125.4237 0009226 263.6671 241.8933 15.86555319  1306,6690.086,90.763,318.123,305.779,0.0
55667.0,STARLINK-5456,PAYLOAD,2023-02-26 22:00:00,15.85845534,0.0007689,69.9994,124.4636,269.7122,338.6997,-0.0044088,-0.00972034,0.0,0 STARLINK-5456,1 55667U 23021AR  23057.91667824 -.00972034  00000-0 -44088-2 0  9990,2 55667  69.9994 124.4636 0007689 269.7122 338.6997 15.85845534  1972,6692.082,90.803,319.093,308.801,0.0
55667.0,STARLINK-5456,PAYLOAD,2023-02-27 14:00:01,15.84446873,0.0003716,69.9999,122.5466,260.4863,191.0762,-0.0048384,-0.0099125,0.0,0 STARLINK-5456,1 55667U 23021AR  23058.58334491 -.00991250  00000-0 -48384-2 0  9999,2 55667  69.9999 122.5466 0003716 260.4863 191.0762 15.84446873  1304,6696.02,90.883,320.373,315.396,0.0
55667.0,STARLINK-5456,PAYLOAD,2023-02-27 22:00:01,15.83745655,0.000354,70.0001,121.5896,270.1044,281.8293,-0.0050503,-0.00999403,0.0,0 STARLINK-5456,1 55667U 23021AR  23058.91668981 -.00999403  00000-0 -50503-2 0  9994,2 55667  70.0001 121.5896 0003540 270.1044 281.8293 15.83745655  2139,6697.996,90.924,322.232,317.49,0.0
55667.0,STARLINK-5456,PAYLOAD,2023-02-28 14:00:01,15.82342175,0.0003755,69.9999,119.6793,262.8891,127.0454,-0.0054633,-0.01010388,0.0,0 STARLINK-5456,1 55667U 23021AR  23059.58334491 -.01010388  00000-0 -54633-2 0  9999,2 55667  69.9999 119.6793 0003755 262.8891 127.0454 15.82342175  1309,6701.956,91.004,326.338,321.304,0.0
55667.0,STARLINK-5456,PAYLOAD,2023-02-28 22:00:00,15.81642308,0.0003631,70.0002,118.725,271.7475,215.9491,-0.005705,-0.01019791,0.0,0 STARLINK-5456,1 55667U 23021AR  23059.91667824 -.01019791  00000-0 -57050-2 0  9998,2 55667  70.0002 118.7250 0003631 271.7475 215.9491 15.81642308  1303,6703.933,91.045,328.232,323.364,0.0
55667.0,STARLINK-5456,PAYLOAD,2023-03-01 00:00:00,15.81433866,0.0003556,70.0002,118.4865,267.4816,334.5383,-0.0054867,-0.00976273,0.0,0 STARLINK-5456,1 55667U 23021AR  23060.00001157 -.00976273  00000-0 -54867-2 0  9990,2 55667  70.0002 118.4865 0003556 267.4816 334.5383 15.81433866  2305,6704.522,91.057,328.771,324.003,0.0
55667.0,STARLINK-5456,PAYLOAD,2023-03-01 22:00:00,15.79501481,0.0003628,69.9995,115.8682,272.3523,143.5642,-0.0060982,-0.00990803,0.0,0 STARLINK-5456,1 55667U 23021AR  23060.91667824 -.00990803  00000-0 -60982-2 0  9999,2 55667  69.9995 115.8682 0003628 272.3523 143.5642 15.79501481  2459,6709.989,91.168,334.289,329.42,0.0
55667.0,STARLINK-5456,PAYLOAD,2023-03-02 20:00:01,15.77548636,0.0003479,69.9997,113.2584,264.1177,319.2955,-0.0065691,-0.00978346,0.0,0 STARLINK-5456,1 55667U 23021AR  23061.83334491 -.00978346  00000-0 -65691-2 0  9992,2 55667  69.9997 113.2584 0003479 264.1177 319.2955 15.77548636  1305,6715.526,91.281,339.727,335.054,0.0
55667.0,STARLINK-5456,PAYLOAD,2023-03-03 14:00:01,15.75967743,0.0003536,70.0001,111.1289,265.5067,253.8091,-0.0071188,-0.00987136,0.0,0 STARLINK-5456,1 55667U 23021AR  23062.58334491 -.00987136  00000-0 -71188-2 0  9990,2 55667  70.0001 111.1289 0003536 265.5067 253.8091 15.75967743  2712,6720.016,91.372,344.257,339.505,0.0
55667.0,STARLINK-5456,PAYLOAD,2023-03-03 22:00:00,15.7524927,0.0003565,70.0,110.1833,261.3286,348.1314,-0.0072301,-0.00973037,0.0,0 STARLINK-5456,1 55667U 23021AR  23062.91667824 -.00973037  00000-0 -72301-2 0  9999,2 55667  70.0000 110.1833 0003565 261.3286 348.1314 15.75249270  1302,6722.059,91.414,346.32,341.528,0.0
55667.0,STARLINK-5456,PAYLOAD,2023-03-04 14:00:01,15.73823793,0.000363,69.9999,108.2963,267.2603,159.9368,-0.0075205,-0.00953461,0.0,0 STARLINK-5456,1 55667U 23021AR  23063.58334491 -.00953461  00000-0 -75205-2 0  9999,2 55667  69.9999 108.2963 0003630 267.2603 159.9368 15.73823793  1302,6726.117,91.497,350.424,345.541,0.0
55667.0,STARLINK-5456,PAYLOAD,2023-03-04 16:00:00,15.73660618,0.0003436,69.9998,108.0606,265.6281,273.5424,-0.0077586,-0.00989941,0.0,0 STARLINK-5456,1 55667U 23021AR  23063.66667824 -.00989941  00000-0 -77586-2 0  9993,2 55667  69.9998 108.0606 0003436 265.6281 273.5424 15.73660618  2886,6726.582,91.506,350.759,346.136,0.0
